P/2020 O1 (Lemmon-PANSTARRS),e,5.2259,175.9762,104.5258,2.644706,0.2291596,0.11932812,150.4379,02/18.0/2022,2000,g 15.5,4.0
# From MPEC 2022-CN4
C/2020 O2 (Amaral),h,08/28.6113/2021,71.7508,256.7572,10.3089,1.002337,4.862252,2000,8.0,3.2
# From MPEC 2020-SI8
P/2020 O3 (PANSTARRS),e,8.4422,266.8275,81.5844,4.650381,0.0982814,0.10390851,37.7178,02/18.0/2022,2000,g 12.0,4.0
# From MPEC 2021-BE3
C/2020 P1 (NEOWISE),h,10/20.2095/2020,45.0913,53.5164,8.8889,1.000272,0.341751,2000,14.0,3.2
# From MPEC 2022-CN4
C/2020 P3 (ATLAS),e,61.8859,19.4743,82.2519,37040,0.0000001,0.99981608,0.0000,04/20.8860/2021,2000,g  6.0,4.0
# From MPEC 2022-CN4
C/2020 PV6 (PANSTARRS),e,128.2391,329.1450,71.3851,41.81773,0.0036447,0.94510280,0.5284,02/18.0/2022,2000,g 10.0,4.0
# From MPEC 2021-N06
C/2020 Q1 (Borisov),e,142.9168,52.4144,9.9022,58.65604,0.0021940,0.97757990,0.0000,08/14.5626/2020,2000,g 14.0,4.0
# From MPEC 2022-C56
C/2020 R2 (PANSTARRS),e,53.2283,195.0935,211.7391,409.1329,0.0001191,0.98853216,0.0000,02/24.5254/2022,2000,g  9.0,4.0
# From MPEC 2022-CN4
C/2020 R4 (ATLAS),e,164.4624,323.2742,46.7206,98.79161,0.0010037,0.98958795,0.0000,03/01.9663/2021,2000,g 13.5,4.0
# From MPEC 2020-W26
P/2020 R5 (PANSTARRS),e,11.4515,272.9772,82.4538,4.983116,0.0886038,0.31471424,55.8257,02/18.0/2022,2000,g  9.5,6.0
# From MPEC 2021-Y10
C/2020 R6 (Rankin),e,82.8122,12.1780,272.0031,353.3115,0.0001484,0.99113701,0.0000,09/09.5408/2019,2000,g 11.0,4.0
# From MPEC 2022-A21
C/2020 R7 (ATLAS),h,09/16.2038/2022,114.8917,268.2805,347.8284,1.000004,2.956000,2000,7.0,3.2
# From MPEC 2021-BE3
P/2020 S1 (PANSTARRS),e,13.7333,129.4614,254.9291,5.985561,0.0673049,0.50750641,26.7085,02/18.0/2022,2000,g 14.0,4.0
# From MPEC 2021-BE3
C/2020 S2 (PANSTARRS),e,22.3994,197.6723,202.2958,10.19983,0.0302562,0.82782328,12.7983,02/18.0/2022,2000,g 17.0,4.0
# From MPEC 2022-C56
C/2020 S3 (Erasmus),e,19.9320,222.7879,349.9874,176.7086,0.0004196,0.99775399,0.0000,12/12.6709/2020,2000,g 13.5,3.2
# From MPEC 2022-CN4
C/2020 S4 (PANSTARRS),h,02/09.3377/2023,20.5731,117.7208,21.0098,1.000472,3.369441,2000,8.5,3.2
# From MPEC 2021-BE3
P/2020 S5 (PANSTARRS),e,12.3530,316.0016,53.1061,4.051506,0.1208591,0.33859332,67.4703,02/18.0/2022,2000,g 14.5,4.0
# From MPEC 2021-P47
P/2020 S6 (Leonard),e,15.4595,242.5529,176.6704,3.600125,0.1442872,0.47932403,65.1215,02/18.0/2022,2000,g 16.0,4.0
# From MPEC 2021-BE3
P/2020 S7 (PANSTARRS),e,16.0918,328.0200,40.4756,5.025911,0.0874746,0.41067877,39.9430,02/18.0/2022,2000,g 14.5,4.0
# From MPEC 2021-P47
C/2020 S8 (Lemmon),e,108.5245,24.0559,160.3288,275.3827,0.0002157,0.99141689,0.0000,04/10.9181/2021,2000,g 12.5,4.0
# From MPEC 2022-C56
C/2020 T2 (Palomar),e,27.8692,83.0427,150.4055,318.4162,0.0001735,0.99354640,0.0000,07/11.1849/2021,2000,g 11.0,3.2
# From MPEC 2021-N06
P/2020 T3 (PANSTARRS),e,7.2957,74.0071,357.0385,3.517480,0.1494020,0.59170241,58.7911,02/18.0/2022,2000,g 18.0,3.2
# From MPEC 2021-N06
C/2020 T4 (PANSTARRS),h,07/05.2616/2021,83.8166,50.6164,79.6103,1.000085,2.191890,2000,13.0,3.2
# From MPEC 2021-BE3
C/2020 T5 (Lemmon),e,66.5888,237.8593,90.3081,824.5608,0.0000416,0.99770844,0.0000,10/09.5997/2020,2000,g 16.0,4.0
# From MPEC 2021-N06
P/2020 U2 (PANSTARRS),e,6.4211,342.8991,84.6411,3.778127,0.1342113,0.51074618,56.2698,02/18.0/2022,2000,g 18.0,4.0
# From MPEC 2021-W31
C/2020 U3 (Rankin),e,30.1715,282.6764,124.2788,65.60101,0.0018550,0.96530107,0.6993,02/18.0/2022,2000,g 15.0,4.0
# From MPEC 2022-C56
C/2020 U4 (PANSTARRS),h,04/07.9542/2022,167.0359,120.0141,69.5308,1.001411,5.353689,2000,7.0,4.0
# From MPEC 2022-CN4
C/2020 U5 (PANSTARRS),e,97.2705,107.3371,75.4161,5953,0.0000021,0.99936907,0.0000,04/27.8822/2022,2000,g  8.0,4.0
# From MPEC 2022-CN4
C/2020 V2 (ZTF),h,05/08.4972/2023,131.6092,212.3623,162.4028,1.001185,2.228230,2000,4.9,4.0
# From MPEC 2021-N06
P/2020 V3 (PANSTARRS),e,23.0315,198.2626,249.3317,8.371969,0.0406877,0.25582845,15.2312,02/18.0/2022,2000,g  8.3,4.0
# From MPEC 2022-CN4
P/2020 V4 (Rankin),e,14.2429,203.4959,256.9928,9.351546,0.0344651,0.44944568,7.4171,02/18.0/2022,2000,g  9.0,4.0
# From MPEC 2021-BE3
P/2020 W1 (Rankin),e,10.7910,124.2641,264.9170,7.204673,0.0509662,0.26589824,34.8110,02/18.0/2022,2000,g 10.0,4.0
# From MPEC 2021-BE3
C/2020 W5 (Lemmon),h,11/30.0798/2020,88.5834,75.4995,24.4814,1.000752,3.364345,2000,15.0,4.0
# From MPEC 2021-P47
P/2020 X1 (ATLAS),e,31.6944,56.0166,323.3014,4.527522,0.1023089,0.36551258,59.0846,02/18.0/2022,2000,g 13.0,4.0
# From MPEC 2021-U31
C/2020 X2 (ATLAS),e,18.1883,105.4516,347.3412,16.41404,0.0148211,0.76678592,6.8055,02/18.0/2022,2000,g 10.6,4.0
# From MPEC 2021-S45
C/2020 X4 (Leonard),e,80.6351,161.8897,140.2930,42.31284,0.0035809,0.87669077,1.6400,02/18.0/2022,2000,g  9.0,4.0
# From MPEC 2022-C56
C/2020 Y2 (ATLAS),e,101.2967,26.5118,266.1000,1147,0.0000254,0.99726908,0.0000,06/17.6768/2022,2000,g  6.5,4.0
# From MPEC 2021-R75
C/2020 Y3 (ATLAS),e,83.1011,191.4347,342.0212,147.8918,0.0005480,0.98648494,0.0000,12/03.4365/2020,2000,g 13.5,4.0
# From MPEC 2022-C56
C/2021 A1 (Leonard),h,01/03.2990/2022,132.6864,255.8964,225.0926,1.000026,0.615256,2000,8.5,4.0
# From MPEC 2021-U31
C/2021 A2 (NEOWISE),e,106.9775,125.2327,338.8267,247.1920,0.0002536,0.99428518,0.0000,01/22.5970/2021,2000,g 13.5,4.0
# From MPEC 2021-R75
C/2021 A4 (NEOWISE),e,111.5573,307.0973,204.6958,43.02917,0.0034919,0.97335993,0.0000,03/20.0118/2021,2000,g 16.0,4.0
# From MPEC 2021-BE3
P/2021 A5 (PANSTARRS),e,18.1876,328.7680,61.2011,3.047072,0.1853019,0.13980713,85.8075,02/18.0/2022,2000,g 15.0,4.0
# From MPEC 2022-CN4
C/2021 A6 (PANSTARRS),e,75.6116,164.0793,351.6940,10825,0.0000009,0.99926760,0.0000,05/04.1576/2021,2000,g  7.0,4.0
# From MPEC 2022-CN4
C/2021 A7 (NEOWISE),e,78.1497,154.5178,356.0514,5426,0.0000025,0.99963735,0.0000,07/15.2982/2021,2000,g 10.0,4.0
# From MPEC 2022-CN4
C/2021 A9 (PANSTARRS),h,12/01.3873/2023,158.0258,314.8430,211.4602,1.003807,7.759669,2000,6.0,4.0
# From MPEC 2021-N06
C/2021 A10 (NEOWISE),e,151.5863,188.3815,82.3983,98.56841,0.0010072,0.98710849,0.0000,03/15.3581/2021,2000,g 19.0,4.0
# From MPEC 2022-CN4
C/2021 B2 (PANSTARRS),e,38.0910,120.5530,334.9678,351.1786,0.0001498,0.99284442,0.0000,05/04.2686/2021,2000,g 14.0,4.0
# From MPEC 2021-N06
C/2021 B3 (NEOWISE),e,119.4830,67.2866,293.5547,34.84874,0.0047910,0.93801223,1.6487,02/18.0/2022,2000,g 13.5,4.0
# From MPEC 2022-C56
C/2021 C1 (Rankin),e,143.0437,186.8957,336.2985,52896,0.0000001,0.99993420,0.0000,12/07.1002/2020,2000,g 11.5,4.0
# From MPEC 2021-U31
P/2021 C2 (PANSTARRS),e,21.9282,66.4801,78.7800,9.536711,0.0334662,0.48727229,12.0109,02/18.0/2022,2000,g 12.0,4.0
# From MPEC 2021-N06
C/2021 C3 (Catalina),e,122.1644,181.9249,357.1331,63.03110,0.0019696,0.96389042,0.7299,02/18.0/2022,2000,g 14.0,4.0
# From MPEC 2022-CN4
C/2021 C4 (ATLAS),e,132.8488,194.2755,320.2316,16497,0.0000005,0.99972697,0.0000,01/17.1005/2021,2000,g  9.0,4.0
# From MPEC 2022-CN4
C/2021 C5 (PANSTARRS),e,50.7849,323.6900,270.9178,4283,0.0000035,0.99924310,0.0000,02/11.0475/2023,2000,g  9.0,4.0
# From MPEC 2022-C56
C/2021 C6 (Lemmon),h,11/13.3127/2021,164.6257,332.1555,203.5594,1.001641,3.271204,2000,12.0,4.0
# From MPEC 2021-N06
C/2021 D1 (SWAN),e,31.4564,311.2691,72.2343,97.99397,0.0010160,0.99079687,0.0000,02/27.6343/2021,2000,g 13.0,4.0
# From MPEC 2022-C56
C/2021 D2 (ZTF),h,02/03.9821/2022,83.8305,305.6789,125.0301,1.001457,2.946301,2000,9.0,4.0
# From MPEC 2021-N06
A/2021 E2,e,167.4882,190.8177,342.4521,235.0023,0.0002736,0.99026536,0.0000,12/10.4649/2020,2000,g 15.0,2.0
# From MPEC 2022-A21
C/2021 E3 (ZTF),h,06/11.9069/2022,112.5560,104.4683,228.8456,1.000849,1.777425,2000,8.5,4.0
# From MPEC 2022-CN4
A/2021 E4,e,116.3608,171.1735,48.2787,695.4864,0.0000537,0.99327663,0.0000,04/25.3341/2022,2000,g 13.5,2.0
# From MPEC 2022-CN4
C/2021 F1 (Lemmon-PANSTARRS),e,107.3244,203.4515,146.8228,236.2151,0.0002715,0.99578569,0.0000,04/06.8737/2022,2000,g 13.5,4.0
# From MPEC 2021-J72
C/2021 G1 (Leonard),e,131.5629,270.6975,107.4764,75.09384,0.0015146,0.95440943,0.3193,02/18.0/2022,2000,g 14.0,4.0
# From MPEC 2022-CN4
C/2021 G2 (ATLAS),e,48.4729,221.1207,343.3704,3775,0.0000042,0.99868125,0.0000,09/10.0606/2024,2000,g  5.5,4.0
# From MPEC 2022-C56
C/2021 G3 (PANSTARRS),h,10/16.5561/2021,102.8552,147.4053,10.3992,1.000155,5.177990,2000,10.5,4.0
# From MPEC 2021-Y10
P/2021 HS (PANSTARRS),e,12.1710,262.3906,46.0854,4.194305,0.1147398,0.81010543,22.4454,02/18.0/2022,2000,g 22.0,4.0
# From MPEC 2022-C56
C/2021 J1 (Maury-Attard),e,92.7186,88.3226,147.3303,26.44940,0.0072457,0.93418434,2.6341,02/18.0/2022,2000,g 15.5,4.0
# From MPEC 2022-CN4
C/2021 J2 (PANSTARRS),e,156.2092,23.3295,172.0575,117.3109,0.0007757,0.95987953,0.1152,02/18.0/2022,2000,g 12.0,4.0
# From MPEC 2021-S45
P/2021 J3 (ATLAS),e,14.5491,111.2053,125.9744,8.942214,0.0368584,0.45026884,35.3418,02/18.0/2022,2000,g  7.0,4.0
# From MPEC 2022-C56
C/2021 K1 (ATLAS),e,16.2758,140.9042,184.2815,12.70479,0.0217647,0.80341153,6.3014,02/18.0/2022,2000,g 11.0,4.0
# From MPEC 2021-R75
C/2021 K2 (MASTER),h,09/09.2837/2021,100.8375,282.2482,343.3374,1.000581,5.466764,2000,8.0,4.0
# From MPEC 2021-U31
C/2021 K3 (Catalina),h,02/02.6994/2022,134.7764,114.4509,181.9967,1.003270,5.229846,2000,10.0,4.0
# From MPEC 2021-W31
P/2021 L2 (Leonard),e,21.0690,266.6595,51.5223,4.051005,0.1208815,0.52150957,25.2077,02/18.0/2022,2000,g 17.0,4.0
# From MPEC 2021-WD8
C/2021 L3 (Borisov),h,02/14.0197/2022,78.5798,344.9682,91.6152,1.001298,8.457341,2000,6.0,4.0
# From MPEC 2021-R75
P/2021 L4 (PANSTARRS),e,16.9614,243.2242,234.5826,3.164972,0.1750448,0.11855607,157.2286,02/18.0/2022,2000,g 13.5,4.0
# From MPEC 2021-P47
P/2021 N1 (ZTF),e,11.5054,301.1657,21.1965,2.977123,0.1918708,0.67674040,49.2061,02/18.0/2022,2000,g 19.0,4.0
# From MPEC 2022-CN4
P/2021 N2 (Fuls),e,13.0629,221.7425,177.3467,6.932762,0.0539939,0.45236624,5.2207,02/18.0/2022,2000,g  9.5,4.0
# From MPEC 2021-W31
C/2021 N3 (PANSTARRS),e,26.7495,337.4945,304.6494,161.0545,0.0004822,0.96455241,0.2641,02/18.0/2022,2000,g  8.5,4.0
# From MPEC 2022-A21
